QZS-1R                  
1 49336U 21096A   24124.85910649 -.00000200  00000+0  00000+0 0  9999
2 49336  35.8551  91.1982 0753504 270.6453 304.8900  1.00273956  9247
